{
    "links": {
        "self": "http://www.neowsapp.com/rest/v1/neo/3739263?api_key=iIulBulltgU6a56xZRHN4H3l9WmuAYTsLGpBGhQ2"
    },
    "id": "3739263",
    "neo_reference_id": "3739263",
    "name": "(2016 AN9)",
    "designation": "2016 AN9",
    "nasa_jpl_url": "http://ssd.jpl.nasa.gov/sbdb.cgi?sstr=3739263",
    "absolute_magnitude_h": 26.8,
    "estimated_diameter": {
        "kilometers": {
            "estimated_diameter_min": 0.0116025908,
            "estimated_diameter_max": 0.0259441818
        },
        "meters": {
            "estimated_diameter_min": 11.6025908209,
            "estimated_diameter_max": 25.9441817907
        },
        "miles": {
            "estimated_diameter_min": 0.0072095135,
            "estimated_diameter_max": 0.0161209622
        },
        "feet": {
            "estimated_diameter_min": 38.066244069,
            "estimated_diameter_max": 85.1187093863
        }
    },
    "is_potentially_hazardous_asteroid": false,
    "close_approach_data": [
        {
            "close_approach_date": "2016-01-07",
            "close_approach_date_full": "2016-Jan-07 00:55",
            "epoch_date_close_approach": 1452128100000,
            "relative_velocity": {
                "kilometers_per_second": "8.7273094385",
                "kilometers_per_hour": "31418.3139786236",
                "miles_per_hour": "19522.1184829953"
            },
            "miss_distance": {
                "astronomical": "0.0196968475",
                "lunar": "7.6620736775",
                "kilometers": "2946606.431714825",
                "miles": "1830936.335021585"
            },
            "orbiting_body": "Earth"
        },
        {
            "close_approach_date": "2097-03-30",
            "close_approach_date_full": "2097-Mar-30 00:30",
            "epoch_date_close_approach": 4015441800000,
            "relative_velocity": {
                "kilometers_per_second": "19.4109000943",
                "kilometers_per_hour": "69879.2403394883",
                "miles_per_hour": "43420.2424209448"
            },
            "miss_distance": {
                "astronomical": "0.4145684217",
                "lunar": "161.2671160413",
                "kilometers": "62018552.855581779",
                "miles": "38536541.7812713902"
            },
            "orbiting_body": "Earth"
        }
    ],
    "orbital_data": {
        "orbit_id": "4",
        "orbit_determination_date": "2017-04-06 08:29:24",
        "first_observation_date": "2016-01-02",
        "last_observation_date": "2016-01-09",
        "data_arc_in_days": 7,
        "observations_used": 26,
        "orbit_uncertainty": "8",
        "minimum_orbit_intersection": ".0195611",
        "jupiter_tisserand_invariant": "3.727",
        "epoch_osculation": "2457392.5",
        "eccentricity": ".4995105997313488",
        "semi_major_axis": "1.942238339600096",
        "inclination": "8.048517685204882",
        "ascending_node_longitude": "99.89146609347033",
        "orbital_period": "988.6719460892029",
        "perihelion_distance": ".9720697017652331",
        "perihelion_argument": "28.12947897606208",
        "aphelion_distance": "2.91240697743496",
        "perihelion_time": "2457412.427657459690",
        "mean_anomaly": "352.7438452017722",
        "mean_motion": ".3641248256552826",
        "equinox": "J2000",
        "orbit_class": {
            "orbit_class_type": "APO",
            "orbit_class_description": "Near-Earth asteroid orbits which cross the Earth’s orbit similar to that of 1862 Apollo",
            "orbit_class_range": "a (semi-major axis) > 1.0 AU; q (perihelion) < 1.017 AU"
        }
    },
    "is_sentry_object": false
}